{"type": "FeatureCollection", "features": [ {"type": "Feature", "properties": {"norad_id": 31480, "name": "FENGYUN 1C DEB", "group": "fengyun-1c-debris", "lat": -2.2812430193245294, "lon": 8.184364838705354, "alt_km": 831.4190266746227, "timestamp": "2025-12-02T07:10:09.397991+00:00", "meta": {"OBJECT_NAME": "FENGYUN 1C DEB", "OBJECT_ID": "1999-025BVU", "EPOCH": "2025-12-01T19:53:30.467040", "MEAN_MOTION": 13.89688019, "ECCENTRICITY": 0.0346799, "INCLINATION": 98.3385, "RA_OF_ASC_NODE": 188.097, "ARG_OF_PERICENTER": 251.7282, "MEAN_ANOMALY": 104.5858, "EPHEMERIS_TYPE": 0, "CLASSIFICATION_TYPE": "U", "NORAD_CAT_ID": 31480, "ELEMENT_SET_NO": 999, "REV_AT_EPOCH": 93244, "BSTAR": 0.0036234, "MEAN_MOTION_DOT": 7.178e-05, "MEAN_MOTION_DDOT": 0}, "tle": {"line1": "1 31480U 99025BVU 25335.82882485  .00007178  00000+0  36234-2 0  9996", "line2": "2 31480  98.3385 188.0970 0346799 251.7282 104.5858 13.89688019932448"}}, "geometry": {"type": "Point", "coordinates": [8.184364838705354, -2.2812430193245294]}}, {"type": "Feature", "properties": {"norad_id": 31482, "name": "FENGYUN 1C DEB", "group": "fengyun-1c-debris", "lat": -26.068217711783692, "lon": -15.416089344854614, "alt_km": 718.7770069038206, "timestamp": "2025-12-02T07:10:09.398003+00:00", "meta": {"OBJECT_NAME": "FENGYUN 1C DEB", "OBJECT_ID": "1999-025BVW", "EPOCH": "2025-12-01T20:08:57.278976", "MEAN_MOTION": 14.35574676, "ECCENTRICITY": 0.0089185, "INCLINATION": 98.3825, "RA_OF_ASC_NODE": 340.0011, "ARG_OF_PERICENTER": 315.121, "MEAN_ANOMALY": 166.6276, "EPHEMERIS_TYPE": 0, "CLASSIFICATION_TYPE": "U", "NORAD_CAT_ID": 31482, "ELEMENT_SET_NO": 999, "REV_AT_EPOCH": 96973, "BSTAR": 0.00082657, "MEAN_MOTION_DOT": 2.447e-05, "MEAN_MOTION_DDOT": 0}, "tle": {"line1": "1 31482U 99025BVW 25335.83955184  .00002447  00000+0  82657-3 0  9991", "line2": "2 31482  98.3825 340.0011 0089185 315.1210 166.6276 14.35574676969734"}}, "geometry": {"type": "Point", "coordinates": [-15.416089344854614, -26.068217711783692]}}, {"type": "Feature", "properties": {"norad_id": 31483, "name": "FENGYUN 1C DEB", "group": "fengyun-1c-debris", "lat": -16.1953856453089, "lon": 98.71220820345386, "alt_km": 788.8417131103024, "timestamp": "2025-12-02T07:10:09.398016+00:00", "meta": {"OBJECT_NAME": "FENGYUN 1C DEB", "OBJECT_ID": "1999-025BVX", "EPOCH": "2025-12-01T01:42:05.279616", "MEAN_MOTION": 14.15802685, "ECCENTRICITY": 0.01198121, "INCLINATION": 102.5009, "RA_OF_ASC_NODE": 280.6907, "ARG_OF_PERICENTER": 250.3035, "MEAN_ANOMALY": 172.1525, "EPHEMERIS_TYPE": 0, "CLASSIFICATION_TYPE": "U", "NORAD_CAT_ID": 31483, "ELEMENT_SET_NO": 999, "REV_AT_EPOCH": 94541, "BSTAR": 0.0031751806, "MEAN_MOTION_DOT": 6.622e-05, "MEAN_MOTION_DDOT": 0}, "tle": {"line1": "1 31483U 99025BVX 25335.07089444  .00006622  00000+0  31752-2 0  9993", "line2": "2 31483 102.5009 280.6907 0119812 250.3035 172.1525 14.15802685945416"}}, "geometry": {"type": "Point", "coordinates": [98.71220820345386, -16.1953856453089]}}, {"type": "Feature", "properties": {"norad_id": 31484, "name": "FENGYUN 1C DEB", "group": "fengyun-1c-debris", "lat": 18.05628198697564, "lon": -95.36682086549932, "alt_km": 782.2540959888929, "timestamp": "2025-12-02T07:10:09.398026+00:00", "meta": {"OBJECT_NAME": "FENGYUN 1C DEB", "OBJECT_ID": "1999-025BVY", "EPOCH": "2025-12-01T06:14:16.664640", "MEAN_MOTION": 14.4971956, "ECCENTRICITY": 0.00824182, "INCLINATION": 101.8049, "RA_OF_ASC_NODE": 267.0929, "ARG_OF_PERICENTER": 183.373, "MEAN_ANOMALY": 176.6905, "EPHEMERIS_TYPE": 0, "CLASSIFICATION_TYPE": "U", "NORAD_CAT_ID": 31484, "ELEMENT_SET_NO": 999, "REV_AT_EPOCH": 64071, "BSTAR": 0.0059253262, "MEAN_MOTION_DOT": 0.00023837, "MEAN_MOTION_DDOT": 0}, "tle": {"line1": "1 31484U 99025BVY 25335.25991510  .00023837  00000+0  59253-2 0  9993", "line2": "2 31484 101.8049 267.0929 0082418 183.3730 176.6905 14.49719560640716"}}, "geometry": {"type": "Point", "coordinates": [-95.36682086549932, 18.05628198697564]}}, {"type": "Feature", "properties": {"norad_id": 31485, "name": "FENGYUN 1C DEB", "group": "fengyun-1c-debris", "lat": -75.27566433471699, "lon": -139.8917495349241, "alt_km": 958.3841944654068, "timestamp": "2025-12-02T07:10:09.398036+00:00", "meta": {"OBJECT_NAME": "FENGYUN 1C DEB", "OBJECT_ID": "1999-025BVZ", "EPOCH": "2025-12-01T08:15:22.819968", "MEAN_MOTION": 13.39956688, "ECCENTRICITY": 0.04452941, "INCLINATION": 102.7194, "RA_OF_ASC_NODE": 159.6611, "ARG_OF_PERICENTER": 343.4997, "MEAN_ANOMALY": 15.2018, "EPHEMERIS_TYPE": 0, "CLASSIFICATION_TYPE": "U", "NORAD_CAT_ID": 31485, "ELEMENT_SET_NO": 999, "REV_AT_EPOCH": 90292, "BSTAR": 0.0036679606, "MEAN_MOTION_DOT": 3.503e-05, "MEAN_MOTION_DDOT": 0}, "tle": {"line1": "1 31485U 99025BVZ 25335.34401412  .00003503  00000+0  36680-2 0  9998", "line2": "2 31485 102.7194 159.6611 0445294 343.4997  15.2018 13.39956688902920"}}, "geometry": {"type": "Point", "coordinates": [-139.8917495349241, -75.27566433471699]}}, {"type": "Feature", "properties": {"norad_id": 31487, "name": "FENGYUN 1C DEB", "group": "fengyun-1c-debris", "lat": 34.8778541940375, "lon": 132.30085498362567, "alt_km": 861.0796615744894, "timestamp": "2025-12-02T07:10:09.398056+00:00", "meta": {"OBJECT_NAME": "FENGYUN 1C DEB", "OBJECT_ID": "1999-025BWB", "EPOCH": "2025-11-30T23:05:01.865760", "MEAN_MOTION": 13.97656398, "ECCENTRICITY": 0.01196503, "INCLINATION": 102.4138, "RA_OF_ASC_NODE": 139.3316, "ARG_OF_PERICENTER": 334.6168, "MEAN_ANOMALY": 176.6312, "EPHEMERIS_TYPE": 0, "CLASSIFICATION_TYPE": "U", "NORAD_CAT_ID": 31487, "ELEMENT_SET_NO": 999, "REV_AT_EPOCH": 94247, "BSTAR": 0.001372128, "MEAN_MOTION_DOT": 1.985e-05, "MEAN_MOTION_DDOT": 0}, "tle": {"line1": "1 31487U 99025BWB 25334.96182715  .00001985  00000+0  13721-2 0  9992", "line2": "2 31487 102.4138 139.3316 0119650 334.6168 176.6312 13.97656398942472"}}, "geometry": {"type": "Point", "coordinates": [132.30085498362567, 34.8778541940375]}}, {"type": "Feature", "properties": {"norad_id": 31491, "name": "FENGYUN 1C DEB", "group": "fengyun-1c-debris", "lat": -44.8640133514392, "lon": 55.032607585184174, "alt_km": 829.9948409698236, "timestamp": "2025-12-02T07:10:09.398067+00:00", "meta": {"OBJECT_NAME": "FENGYUN 1C DEB", "OBJECT_ID": "1999-025BWE", "EPOCH": "2025-11-29T05:14:19.576896", "MEAN_MOTION": 14.17099923, "ECCENTRICITY": 0.00534374, "INCLINATION": 99.302, "RA_OF_ASC_NODE": 241.2001, "ARG_OF_PERICENTER": 306.7475, "MEAN_ANOMALY": 52.8798, "EPHEMERIS_TYPE": 0, "CLASSIFICATION_TYPE": "U", "NORAD_CAT_ID": 31491, "ELEMENT_SET_NO": 999, "REV_AT_EPOCH": 63536, "BSTAR": 0.0019103725, "MEAN_MOTION_DOT": 3.854e-05, "MEAN_MOTION_DDOT": 0}, "tle": {"line1": "1 31491U 99025BWE 25333.21828214  .00003854  00000+0  19104-2 0  9993", "line2": "2 31491  99.3020 241.2001 0053437 306.7475  52.8798 14.17099923635364"}}, "geometry": {"type": "Point", "coordinates": [55.032607585184174, -44.8640133514392]}}, {"type": "Feature", "properties": {"norad_id": 31492, "name": "FENGYUN 1C DEB", "group": "fengyun-1c-debris", "lat": -77.20401234449201, "lon": -175.22939948948738, "alt_km": 691.8293556765057, "timestamp": "2025-12-02T07:10:09.398079+00:00", "meta": {"OBJECT_NAME": "FENGYUN 1C DEB", "OBJECT_ID": "1999-025BWF", "EPOCH": "2025-11-30T16:19:50.588832", "MEAN_MOTION": 14.70037284, "ECCENTRICITY": 0.00642617, "INCLINATION": 98.8558, "RA_OF_ASC_NODE": 139.6647, "ARG_OF_PERICENTER": 46.3479, "MEAN_ANOMALY": 314.3027, "EPHEMERIS_TYPE": 0, "CLASSIFICATION_TYPE": "U", "NORAD_CAT_ID": 31492, "ELEMENT_SET_NO": 999, "REV_AT_EPOCH": 96329, "BSTAR": 0.0030343762, "MEAN_MOTION_DOT": 0.00018787, "MEAN_MOTION_DDOT": 0}, "tle": {"line1": "1 31492U 99025BWF 25334.68044663  .00018787  00000+0  30344-2 0  9994", "line2": "2 31492  98.8558 139.6647 0064261  46.3479 314.3027 14.70037284963297"}}, "geometry": {"type": "Point", "coordinates": [-175.22939948948738, -77.20401234449201]}}, {"type": "Feature", "properties": {"norad_id": 31493, "name": "FENGYUN 1C DEB", "group": "fengyun-1c-debris", "lat": -77.49404160413187, "lon": 47.46318981835684, "alt_km": 881.0813627001271, "timestamp": "2025-12-02T07:10:09.398089+00:00", "meta": {"OBJECT_NAME": "FENGYUN 1C DEB", "OBJECT_ID": "1999-025BWG", "EPOCH": "2025-11-30T02:11:52.626912", "MEAN_MOTION": 13.92931, "ECCENTRICITY": 0.01170362, "INCLINATION": 100.1349, "RA_OF_ASC_NODE": 278.7968, "ARG_OF_PERICENTER": 209.2895, "MEAN_ANOMALY": 150.1667, "EPHEMERIS_TYPE": 0, "CLASSIFICATION_TYPE": "U", "NORAD_CAT_ID": 31493, "ELEMENT_SET_NO": 999, "REV_AT_EPOCH": 59690, "BSTAR": 0.0007972621, "MEAN_MOTION_DOT": 1.042e-05, "MEAN_MOTION_DDOT": 0}, "tle": {"line1": "1 31493U 99025BWG 25334.09158133  .00001042  00000+0  79726-3 0  9992", "line2": "2 31493 100.1349 278.7968 0117036 209.2895 150.1667 13.92931000596903"}}, "geometry": {"type": "Point", "coordinates": [47.46318981835684, -77.49404160413187]}}, {"type": "Feature", "properties": {"norad_id": 31495, "name": "FENGYUN 1C DEB", "group": "fengyun-1c-debris", "lat": 8.552717654302212, "lon": 30.377282496652445, "alt_km": 782.3268485616036, "timestamp": "2025-12-02T07:10:09.398099+00:00", "meta": {"OBJECT_NAME": "FENGYUN 1C DEB", "OBJECT_ID": "1999-025BWJ", "EPOCH": "2025-11-29T09:28:29.855136", "MEAN_MOTION": 14.2907414, "ECCENTRICITY": 0.00253264, "INCLINATION": 99.1199, "RA_OF_ASC_NODE": 205.9571, "ARG_OF_PERICENTER": 218.4335, "MEAN_ANOMALY": 141.5042, "EPHEMERIS_TYPE": 0, "CLASSIFICATION_TYPE": "U", "NORAD_CAT_ID": 31495, "ELEMENT_SET_NO": 999, "REV_AT_EPOCH": 63200, "BSTAR": 0.0012827316, "MEAN_MOTION_DOT": 3.214e-05, "MEAN_MOTION_DDOT": 0}, "tle": {"line1": "1 31495U 99025BWJ 25333.39478999  .00003214  00000+0  12827-2 0  9992", "line2": "2 31495  99.1199 205.9571 0025326 218.4335 141.5042 14.29074140632005"}}, "geometry": {"type": "Point", "coordinates": [30.377282496652445, 8.552717654302212]}}]}